full_name,a,e,i,om,w,q,ad,per_y,data_arc,condition_code,n_obs_used,n_del_obs_used,n_dop_obs_used,H
"493518 (2015 DV104)",2.880370557631155,.09102093547340358,9.104088681796481,30.90814202616602,84.32942090080401,2.618196534965518,3.142544580296792,4.88855771406519,4599,0,122,,,16.5
"493593 (2015 MB51)",3.046781078798802,.2884640965246404,5.819919466301783,335.5544397959704,357.8946531215595,2.167894127594737,3.925668030002869,5.31826626591038,5879,0,96,,,17.0
"493601 (2015 MO91)",2.996188754262445,.2772178795282129,14.02824760486775,199.3921238676677,128.8579985569908,2.165591661139532,3.826785847385358,5.18635161200687,2415,0,100,,,17.3
"493751 (2015 TR256)",3.202126465495974,.1834001206078957,14.67422520833152,1.349218711387936,98.08503290616187,2.614856085522277,3.78939684546967,5.73014909682045,2650,1,59,,,16.7
"493790 (2015 UL66)",3.233512541451387,.2002908466709572,15.2351525615805,101.2871727520985,320.0185540430802,2.58586957680293,3.881155506099844,5.81460244892446,2624,1,97,,,16.4
"493887 (2015 XV165)",3.184781263435505,.2652998510750349,13.48798942386337,172.0015152964776,276.7759714789331,2.339859268539505,4.029703258331506,5.68365380107689,4946,0,66,,,16.8
"493950 (2016 AW27)",3.078990707533497,.1396163603142689,2.246223739960904,238.0334001361297,156.8664457347862,2.649113231506214,3.50886818356078,5.40282336764883,4493,0,92,,,16.8
"493961 (2016 AJ53)",3.053543162690139,.04532146837421198,9.695727382978641,301.54620202,66.03288451451891,2.915152102812986,3.191934222567291,5.3359812780855,2610,1,51,,,16.7
"493969 (2016 AT66)",3.120510219511621,.08930848546937754,8.672547449487586,132.9332640874353,307.4215455188758,2.841822177915323,3.399198261107919,5.51247478674394,2631,1,53,,,16.7
"494059 (2016 BC54)",3.069360346390639,.1510368512192953,8.149307496152325,144.5626942486113,331.8907014616532,2.605773824414432,3.532946868366848,5.37749505134794,2631,0,58,,,16.9
"494183 (2016 GA247)",3.043817139279103,.0307890542412854,15.78268600689804,22.28539358965289,11.68001971925459,2.950100888277285,3.137533390280922,5.31050765858376,4548,0,47,,,16.3
"494207 (2016 HQ14)",3.020285136710266,.1524325828361197,2.131081915887147,170.3126365997927,333.0606965921568,2.559895272419977,3.480675001000555,5.24904287782987,4113,0,62,,,17.1
"494988 (2010 CC2)",2.844168231365171,.2690769497841414,7.653945574856755,318.7013687492699,188.499612512756,2.078868118996475,3.609468343733868,4.79668417016175,4634,0,110,,,17.2
"495007 (2010 MX63)",2.895380843141619,.3028513305628171,8.785775933499401,40.42028118243828,21.30196750145203,2.018510902310089,3.77225078397315,4.92682058390006,2492,0,129,,,17.3
"495260 (2013 PO38)",2.994285658293505,.1165864155627051,8.641317283321797,12.72862535427106,24.22446137379906,2.64519262622225,3.34337869036476,5.18141105676367,8618,0,118,,,16.3
"495567 (2014 WK397)",3.217024872974685,.1668693071865449,28.97807168390419,65.16787997479352,10.00341781884043,2.680202161219517,3.753847584729854,5.7701862345155,2601,1,72,,,16.0
"495697 (2016 CN11)",3.136270666895586,.1241450373924194,4.029765018768021,305.1801495864281,207.8058526243727,2.746918227681085,3.525623106110086,5.55428942684738,4931,0,81,,,16.9
"495719 (2016 CM138)",3.088175739813415,.1717835263765093,19.00435658446928,92.60364769258402,47.80460246508617,2.557678021157881,3.618673458468948,5.42701738262926,4017,0,82,,,16.2
"495828 (1981 EX11)",3.262267044534991,.309659925551735,18.69033547717066,349.8108869299118,213.4949505581383,2.252073674394407,4.272460414675575,5.89233548234074,13280,0,69,,,16.3
"496106 (2009 VF81)",2.911367528646394,.2791076831137099,7.913541954164125,200.3671481776947,215.1170574853983,2.098782483033412,3.723952574259377,4.96768160932197,7825,0,167,,,17.5
"496125 (2010 FF92)",3.087526972897102,.2885408293396295,20.93699846808773,97.06818336110355,78.56088078893181,2.196649379528897,3.978404566265309,5.42530730293884,4053,0,67,,,16.3
"496564 (2014 XP37)",3.102378574548631,.2604256161471321,13.82116811009091,230.8512466397073,190.2171895833892,2.294439722750142,3.910317426347119,5.46449950472462,4519,1,86,,,16.3
"496600 (2015 CK56)",3.112273881229232,.1448067331913008,12.75500990963941,169.0302365942671,357.2494824035583,2.661595667691816,3.562952094766648,5.49066458668474,4048,0,84,,,16.8
"496651 (2016 AE129)",3.105734877381511,.02526105409775165,11.87552176276937,91.28964709839836,.3814011748945265,3.027280740630703,3.18418901413232,5.47336954149479,6259,0,76,,,15.8
"497268 (2005 JW174)",3.05263828117159,.1506363660450988,15.7798380717863,227.0982217286214,41.88965360859775,2.592799943645745,3.512476618697434,5.33360957109391,4516,0,40,,,16.6
"498910 (2009 AS30)",3.037161142592079,.06708911223622285,14.25553580066644,107.0971343506205,83.63204551102395,2.833400697817225,3.240921587366934,5.29309824009165,3196,1,65,,,16.4
"499400 (2010 BZ58)",3.127343113783255,.2154797770303201,13.89422939924605,174.6112067205269,71.68933391233584,2.453463916927932,3.801222310638578,5.5305904631992,4015,0,57,,,16.4
"499411 (2010 CH25)",3.170105759739402,.2543297736966492,28.51492459624183,135.5388517407975,61.26753432519106,2.363853479270436,3.976358040208369,5.64441359313181,2784,0,71,,,16.5
"499414 (2010 CB39)",3.187171984707661,.2656459561731091,24.42907169610125,335.623072727163,257.117773789393,2.340512635341849,4.033831334073473,5.69005482863717,2805,0,57,,,16.3
"499432 (2010 CQ176)",3.03706989810423,.1116445315234974,5.271262208822111,330.2208919395305,196.5090636432563,2.697997652126268,3.376142144082193,5.29285971352624,3178,0,40,,,16.9
"499446 (2010 EF46)",3.121169327053311,.1809651773321601,13.00124615898218,312.3562150568189,221.7237481527251,2.556346366299409,3.685992287807212,5.51422137879051,4969,0,136,,,15.5
"499454 (2010 EA101)",3.001131225649129,.07447298653337991,9.117919237373563,166.9277796778975,18.8567181532232,2.777628020296456,3.224634431001803,5.19918990329887,8619,0,53,,,16.6
"499457 (2010 EL109)",3.098702120151226,.1306253971853333,22.71241800093844,164.7903571820693,69.08128239441176,2.693932924947438,3.503471315355014,5.45478887639651,2735,0,59,,,16.7
"499461 (2010 EA141)",3.200245430281766,.2404471263385778,13.64685906687251,182.6063720056821,72.44546989493948,2.430755612992349,3.969735247571182,5.72510071915656,4015,1,89,,,16.7
"499467 (2010 GJ105)",2.939587295892767,.1188620117996172,8.490127642896086,173.3676195640654,359.5235859648831,2.590182036042356,3.288992555743177,5.04008365588463,2797,1,83,,,16.6
"499468 (2010 GY117)",3.103919322570937,.1446839792170035,17.14199306424091,60.51250928169465,249.8495864064359,2.654831923812827,3.553006721329046,5.46857079802056,5852,0,73,,,16.0
"499469 (2010 GA132)",3.132128172971301,.1558131791258979,10.14227878811277,173.0613621473748,51.74975202396085,2.644101324910852,3.620155021031749,5.54328861728714,4963,1,63,,,17.0
"499486 (2010 KB89)",3.015668704034125,.1037092079342838,15.20898934347992,167.4695581656661,9.121206683121791,2.702916091346538,3.328421316721712,5.23701292528252,2765,0,85,,,16.6
"499994 (2011 OR41)",3.213176143499517,.172303315011855,20.31577074103288,293.1860490653296,7.967346496844512,2.659535242257542,3.766817044741491,5.75983447634617,2635,1,46,,,16.0
"500043 (2011 SJ201)",3.202492578461745,.2638742958066824,25.93325567223154,175.534822982595,119.9542532225724,2.357437104494025,4.047548052429464,5.73113185399756,2634,0,74,,,16.6
"500910 (2013 NJ22)",2.883095544607837,.2830514338791432,7.255272459746476,276.573279212033,171.9042774205506,2.067031216696019,3.699159872519655,4.89549661619618,5091,0,77,,,16.7
"501287 (2013 WR54)",2.981702886908049,.09776273468727133,8.097085841251095,314.5349792847952,128.7306742763435,2.690203458658986,3.273202315157112,5.14878492637573,2628,1,52,,,16.6
"501699 (2014 UN9)",2.835227840835481,.1315038144689992,18.01029974677913,230.7207734455245,215.7277284285951,2.462384564876911,3.208071116794052,4.7740850262961,3718,0,108,,,16.7
"501907 (2014 WY467)",3.143747840620979,.151425708261072,14.4410671686774,326.2361527802576,200.4383405920127,2.667703597260732,3.619792083981227,5.57416420871616,4929,0,84,,,16.3
"501997 (2015 AZ28)",3.129623753180486,.1636808429863145,10.69632981880103,106.1326181352005,123.3640670580742,2.617364299029911,3.641883207331061,5.5366414054906,4959,0,52,,,16.6
"502128 (2015 BR16)",3.043016951542774,.1201004606756687,17.58328325903659,130.5005304353863,96.60914913860837,2.677549213818617,3.40848468926693,5.30841368071921,2681,1,79,,,16.2
"502131 (2015 BB20)",2.973818428170877,.09285536609528558,5.900240190082925,102.9852527054071,141.3966279808146,2.697683429322164,3.24995342701959,5.12837618566405,3214,0,75,,,16.4
"502146 (2015 BJ30)",2.922907618893569,.1637121643806315,17.57712865697926,147.6433433647701,359.9744848851846,2.444392086319865,3.401423151467273,4.99724723344343,6381,0,88,,,16.8
"502154 (2015 BW36)",3.036585817172373,.1199102337601897,15.14271841522394,293.9791405538613,178.7355940175084,2.672468102002357,3.400703532342389,5.29159431441679,4957,0,55,,,16.6
"502171 (2015 BR59)",3.151160886184193,.154581474922082,15.133141661558,125.8092264353362,96.27530903302981,2.664049788681066,3.638271983687321,5.59389188017113,4939,0,115,,,16.1
"502191 (2015 BA68)",3.179547208898942,.1536110743472558,2.725499952477802,89.90150568469643,68.09056391830755,2.691133546202157,3.667960871595728,5.66964828914686,3578,0,81,,,16.6
"502204 (2015 BK74)",3.067215800230672,.07023877770696513,9.62813620473622,107.0582045073862,80.80789609112048,2.851778311458979,3.282653289002365,5.37186019402936,4499,0,89,,,16.3
"502254 (2015 BB113)",3.127388546481358,.1022016024788131,16.02461115768754,90.99487876891612,150.2369745103088,2.807764425457077,3.447012667505638,5.53071098270263,2635,1,52,,,16.4
"502269 (2015 BO125)",3.129154497616508,.07069656873454373,9.912252447907408,309.517392433082,250.2780340305333,2.907934011594756,3.350374983638261,5.53539620673924,4943,0,72,,,16.3
